NORAD_CAT_ID,OBJECT_NAME,OBJECT_TYPE,EPOCH,MEAN_MOTION,ECCENTRICITY,INCLINATION,RA_OF_ASC_NODE,ARG_OF_PERICENTER,MEAN_ANOMALY,BSTAR,MEAN_MOTION_DOT,MEAN_MOTION_DDOT,TLE_LINE0,TLE_LINE1,TLE_LINE2,SEMIMAJOR_AXIS,PERIOD,APOGEE,PERIGEE,DECAYED
53919.0,STARLINK-5023,PAYLOAD,2022-10-08 12:00:00,15.73191614,0.0001142,53.2198,185.9864,77.0645,146.4095,-0.00017523,-0.00025129,0.0,0 STARLINK-5023,1 53919U 22119AK  22281.50001157 -.00025129  00000-0 -17523-3 0  9998,2 53919  53.2198 185.9864 0001142  77.0645 146.4095 15.73191614  2565,6727.919,91.534,350.552,349.016,0.0
53919.0,STARLINK-5023,PAYLOAD,2022-10-08 14:00:01,15.73144908,0.0001127,53.2194,185.5737,82.2354,253.4804,0.00052982,0.00074219,0.0,0 STARLINK-5023,1 53919U 22119AK  22281.58334491  .00074219  00000-0  52982-3 0  9996,2 53919  53.2194 185.5737 0001127  82.2354 253.4804 15.73144908  1306,6728.052,91.536,350.675,349.159,0.0
53919.0,STARLINK-5023,PAYLOAD,2022-10-08 20:00:01,15.73237303,0.0001094,53.2189,184.3376,82.1273,230.2362,-0.00053363,-0.00074964,0.0,0 STARLINK-5023,1 53919U 22119AK  22281.83334491 -.00074964  00000-0 -53363-3 0  9997,2 53919  53.2189 184.3376 0001094  82.1273 230.2362 15.73237303  2617,6727.7890000000025,91.531,350.39,348.918,0.0
53919.0,STARLINK-5023,PAYLOAD,2022-10-08 22:00:00,15.73242521,0.0001141,53.2186,183.9259,77.7203,346.8783,-0.0007946,-0.00110877,0.0,0 STARLINK-5023,1 53919U 22119AK  22281.91667824 -.00110877  00000-0 -79460-3 0  9995,2 53919  53.2186 183.9259 0001141  77.7203 346.8783 15.73242521  1309,6727.774,91.531,350.407,348.871,0.0
53919.0,STARLINK-5023,PAYLOAD,2022-10-09 12:00:00,15.73176244,0.0001041,53.2184,181.0388,83.4414,46.7447,0.00028373,0.00039345,0.0,0 STARLINK-5023,1 53919U 22119AK  22282.50001157  .00039345  00000-0  28373-3 0  9997,2 53919  53.2184 181.0388 0001041  83.4414  46.7447 15.73176244  2724,6727.9630000000025,91.535,350.528,349.12800000000016,0.0
53919.0,STARLINK-5023,PAYLOAD,2022-10-09 14:00:01,15.73183841,0.0001052,53.2182,180.626,86.3556,156.0573,0.00023764,0.00032838,0.0,0 STARLINK-5023,1 53919U 22119AK  22282.58334491  .00032838  00000-0  23764-3 0  9994,2 53919  53.2182 180.6260 0001052  86.3556 156.0573 15.73183841  1306,6727.941,91.534,350.514,349.098,0.0
53919.0,STARLINK-5023,PAYLOAD,2022-10-09 22:00:00,15.73221103,0.0001208,53.2184,178.9779,81.7051,249.6267,-4.848e-05,-7.424e-05,0.0,0 STARLINK-5023,1 53919U 22119AK  22282.91667824 -.00007424  00000-0 -48480-4 0  9998,2 53919  53.2184 178.9779 0001208  81.7051 249.6267 15.73221103  1308,6727.835,91.532,350.51300000000015,348.88699999999994,0.0
53919.0,STARLINK-5023,PAYLOAD,2022-10-10 04:00:00,15.73225575,0.0001223,53.2179,177.7383,72.6184,235.4299,-0.00030677,-0.00043497,0.0,0 STARLINK-5023,1 53919U 22119AK  22283.16667824 -.00043497  00000-0 -30677-3 0  9994,2 53919  53.2179 177.7383 0001223  72.6184 235.4299 15.73225575  2826,6727.821999999999,91.532,350.51,348.86400000000015,0.0
53919.0,STARLINK-5023,PAYLOAD,2022-10-10 14:00:01,15.73213783,0.0001068,53.2177,175.6765,91.7698,57.5753,0.00042051,0.00058845,0.0,0 STARLINK-5023,1 53919U 22119AK  22283.58334491  .00058845  00000-0  42051-3 0  9991,2 53919  53.2177 175.6765 0001068  91.7698  57.5753 15.73213783  2897,6727.856,91.532,350.439,349.00199999999984,0.0
53919.0,STARLINK-5023,PAYLOAD,2022-10-10 20:00:01,15.73420026,0.0001322,53.2176,174.4343,89.8087,36.2268,-0.00325,-0.00437906,0.0,0 STARLINK-5023,1 53919U 22119AK  22283.83334491 -.00437906  00000-0 -32500-2 0  9997,2 53919  53.2176 174.4343 0001322  89.8087  36.2268 15.73420026  2938,6727.268,91.52,350.022,348.244,0.0
53919.0,STARLINK-5023,PAYLOAD,2022-10-10 22:00:01,15.73438236,0.0001245,53.2174,174.0211,88.7542,149.6027,-0.0047293,-0.00623684,0.0,0 STARLINK-5023,1 53919U 22119AK  22283.91668981 -.00623684  00000-0 -47293-2 0  9995,2 53919  53.2174 174.0211 0001245  88.7542 149.6027 15.73438236  1308,6727.215999999999,91.519,349.9190000000001,348.24300000000005,0.0
53919.0,STARLINK-5023,PAYLOAD,2022-10-11 04:00:00,15.73144327,0.0001107999999999,53.217,172.7895,74.3732,140.5423,9.5127e-05,0.00012719,0.0,0 STARLINK-5023,1 53919U 22119AK  22284.16667824  .00012719  00000-0  95127-4 0  9998,2 53919  53.2170 172.7895 0001108  74.3732 140.5423 15.73144327  2987,6728.054,91.536,350.664,349.173,0.0
53919.0,STARLINK-5023,PAYLOAD,2022-10-11 14:00:01,15.73069421,0.0001144,53.2174,170.7141,81.946,334.1502,0.0015175,0.00216721,0.0,0 STARLINK-5023,1 53919U 22119AK  22284.58334491  .00216721  00000-0  15175-2 0  9997,2 53919  53.2174 170.7141 0001144  81.9460 334.1502 15.73069421  3054,6728.267,91.541,350.902,349.36300000000006,0.0
53919.0,STARLINK-5023,PAYLOAD,2022-10-11 20:00:01,15.73182075,0.0001139,53.2174,169.4938,85.9005,306.8107,0.00011682,0.00015793,0.0,0 STARLINK-5023,1 53919U 22119AK  22284.83335648  .00015793  00000-0  11682-3 0  9996,2 53919  53.2174 169.4938 0001139  85.9005 306.8107 15.73182075  3087,6727.946,91.534,350.57800000000015,349.045,0.0
53919.0,STARLINK-5023,PAYLOAD,2022-10-11 22:00:00,15.73181057,0.0001147999999999,53.2172,169.0821,81.0744,63.7987,0.00019602,0.00026956,0.0,0 STARLINK-5023,1 53919U 22119AK  22284.91667824  .00026956  00000-0  19602-3 0  9992,2 53919  53.2172 169.0821 0001148  81.0744  63.7987 15.73181057  1306,6727.949000000001,91.534,350.587,349.042,0.0
53919.0,STARLINK-5023,PAYLOAD,2022-10-12 12:00:00,15.73140287,8.170000000000001e-05,53.2173,166.1857,81.969,128.5469,0.0015459,0.00221591,0.0,0 STARLINK-5023,1 53919U 22119AK  22285.50001157  .00221591  00000-0  15459-2 0  9996,2 53919  53.2173 166.1857 0000817  81.9690 128.5469 15.73140287  3199,6728.065,91.537,350.48,349.381,0.0
53919.0,STARLINK-5023,PAYLOAD,2022-10-12 14:00:01,15.73173707,8.909999999999997e-05,53.217,165.7715,82.9249,239.8201,0.0013300999999999,0.00190121,0.0,0 STARLINK-5023,1 53919U 22119AK  22285.58334491  .00190121  00000-0  13301-2 0  9992,2 53919  53.2170 165.7715 0000891  82.9249 239.8201 15.73173707  1301,6727.97,91.535,350.435,349.236,0.0
53919.0,STARLINK-5023,PAYLOAD,2022-10-12 20:00:01,15.73347067,9.990000000000004e-05,53.2175,164.5312,77.4188,222.0369,-0.0015473,-0.00213681,0.0,0 STARLINK-5023,1 53919U 22119AK  22285.83334491 -.00213681  00000-0 -15473-2 0  9991,2 53919  53.2175 164.5312 0000999  77.4188 222.0369 15.73347067  3242,6727.476,91.525,350.01300000000015,348.6690000000001,0.0
53919.0,STARLINK-5023,PAYLOAD,2022-10-12 22:00:00,15.73238464,9.92e-05,53.2175,164.1179,72.7971,338.9525,-0.00040455,-0.00057103,0.0,0 STARLINK-5023,1 53919U 22119AK  22285.91667824 -.00057103  00000-0 -40455-3 0  9993,2 53919  53.2175 164.1179 0000992  72.7971 338.9525 15.73238464  1306,6727.786,91.531,350.3180000000001,348.983,0.0
53919.0,STARLINK-5023,PAYLOAD,2022-10-13 04:00:00,15.73204045,9.87e-05,53.2171,162.8793,63.7964,324.67,1.1749e-05,1.03e-05,0.0,0 STARLINK-5023,1 53919U 22119AK  22286.16667824  .00001030  00000-0  11749-4 0  9992,2 53919  53.2171 162.8793 0000987  63.7964 324.6700 15.73204045  3290,6727.884,91.533,350.413,349.085,0.0
53919.0,STARLINK-5023,PAYLOAD,2022-10-13 14:00:01,15.73009188,0.0001255,53.2167,160.8195,85.0836,144.6697,0.0019229,0.00276044,0.0,0 STARLINK-5023,1 53919U 22119AK  22286.58334491  .00276044  00000-0  19229-2 0  9997,2 53919  53.2167 160.8195 0001255  85.0836 144.6697 15.73009188  1309,6728.439,91.544,351.149,349.46,0.0
53919.0,STARLINK-5023,PAYLOAD,2022-10-13 22:00:00,15.73204,0.0001365999999999,53.2173,159.1674,80.8214,237.7477,3.0538e-06,-1.91e-06,0.0,0 STARLINK-5023,1 53919U 22119AK  22286.91667824 -.00000191  00000-0  30538-5 0  9991,2 53919  53.2173 159.1674 0001366  80.8214 237.7477 15.73204000  1305,6727.884,91.533,350.668,348.83,0.0
53919.0,STARLINK-5023,PAYLOAD,2022-10-14 06:00:00,15.73314796,8.109999999999999e-05,53.2167,157.5265,72.8954,334.6737,-0.0023739,-0.00322872,0.0,0 STARLINK-5023,1 53919U 22119AK  22287.25001157 -.00322872  00000-0 -23739-2 0  9996,2 53919  53.2167 157.5265 0000811  72.8954 334.6737 15.73314796  3472,6727.568,91.527,349.97900000000016,348.88699999999994,0.0
53919.0,STARLINK-5023,PAYLOAD,2022-10-14 14:00:01,15.73107139,8.89e-05,53.2173,155.8691,86.4475,50.0364,0.0011098,0.00157457,0.0,0 STARLINK-5023,1 53919U 22119AK  22287.58334491  .00157457  00000-0  11098-2 0  9990,2 53919  53.2173 155.8691 0000889  86.4475  50.0364 15.73107139  3529,6728.16,91.539,350.62300000000016,349.427,0.0
53919.0,STARLINK-5023,PAYLOAD,2022-10-14 20:00:01,15.73203401,8.18e-05,53.2175,154.6308,80.5965,32.5423,1.2613e-05,1.152e-05,0.0,0 STARLINK-5023,1 53919U 22119AK  22287.83334491  .00001152  00000-0  12613-4 0  9994,2 53919  53.2175 154.6308 0000818  80.5965  32.5423 15.73203401  1308,6727.885,91.533,350.301,349.2,0.0
53919.0,STARLINK-5023,PAYLOAD,2022-10-15 14:00:01,15.73240451,0.0001095999999999,53.216,150.9361,94.6451,308.7466,-0.00029959,-0.00042525,0.0,0 STARLINK-5023,1 53919U 22119AK  22288.58334491 -.00042525  00000-0 -29959-3 0  9998,2 53919  53.2160 150.9361 0001096  94.6451 308.7466 15.73240451  3689,6727.78,91.531,350.38199999999995,348.907,0.0
53919.0,STARLINK-5023,PAYLOAD,2022-10-15 22:00:01,15.73354934,9.5e-05,53.2165,149.2793,86.4942,45.9274,-0.0039575,-0.00526093,0.0,0 STARLINK-5023,1 53919U 22119AK  22288.91668981 -.00526093  00000-0 -39575-2 0  9990,2 53919  53.2165 149.2793 0000950  86.4942  45.9274 15.73354934  1302,6727.453,91.524,349.958,348.67900000000014,0.0
53919.0,STARLINK-5023,PAYLOAD,2022-10-16 04:00:00,15.73117694,9.8e-05,53.2161,148.0515,74.9832,34.0307,0.00021084,0.00028968,0.0,0 STARLINK-5023,1 53919U 22119AK  22289.16667824  .00028968  00000-0  21084-3 0  9996,2 53919  53.2161 148.0515 0000980  74.9832  34.0307 15.73117694  3779,6728.13,91.538,350.654,349.335,0.0
53919.0,STARLINK-5023,PAYLOAD,2022-10-16 14:00:01,15.73146909,9.87e-05,53.2162,145.9882,91.4225,218.6435,0.00065834,0.00092585,0.0,0 STARLINK-5023,1 53919U 22119AK  22289.58334491  .00092585  00000-0  65834-3 0  9990,2 53919  53.2162 145.9882 0000987  91.4225 218.6435 15.73146909  1300,6728.047,91.536,350.576,349.247,0.0
